[{"OBJECT_NAME":"HAIYANG-2A","OBJECT_ID":"2011-043A","EPOCH":"2026-03-10T00:07:18.637248","MEAN_MOTION":13.78270863,"ECCENTRICITY":0.00014304,"INCLINATION":99.3421,"RA_OF_ASC_NODE":73.6029,"ARG_OF_PERICENTER":273.3888,"MEAN_ANOMALY":86.7099,"EPHEMERIS_TYPE":0,"CLASSIFICATION_TYPE":"U","NORAD_CAT_ID":37781,"ELEMENT_SET_NO":999,"REV_AT_EPOCH":73301,"BSTAR":-0.00021809434,"MEAN_MOTION_DOT":-2.64e-6,"MEAN_MOTION_DDOT":0},{"OBJECT_NAME":"COSMOS 2389","OBJECT_ID":"2002-026A","EPOCH":"2026-03-09T22:43:25.098528","MEAN_MOTION":13.75164505,"ECCENTRICITY":0.00464753,"INCLINATION":82.9471,"RA_OF_ASC_NODE":242.4243,"ARG_OF_PERICENTER":175.0895,"MEAN_ANOMALY":296.9029,"EPHEMERIS_TYPE":0,"CLASSIFICATION_TYPE":"U","NORAD_CAT_ID":27436,"ELEMENT_SET_NO":999,"REV_AT_EPOCH":19347,"BSTAR":6.0971722e-5,"MEAN_MOTION_DOT":7.4e-7,"MEAN_MOTION_DDOT":0}]
